STARLINK-36471          
1 67324U 26002V   26008.58335648 -.00972078  33067-3 -13254-2 0  9994
2 67324  43.0013 315.9842 0001941 264.9525 264.5196 16.05348766  1757
STARLINK-36473          
1 67325U 26002W   26008.58335648 -.00978554  33424-3 -13441-2 0  9995
2 67325  43.0011 315.9863 0001914 262.8839 265.7995 16.05231142  1911
STARLINK-36430          
1 67326U 26002X   26008.58335648 -.00979671  33638-3 -13152-2 0  9993
2 67326  43.0012 315.9803 0001797 257.3398 273.7240 16.05602298  1911
STARLINK-36501          
1 67327U 26002Y   26008.58335648 -.00975186  33306-3 -13201-2 0  9998
2 67327  43.0012 315.9823 0001872 260.8420 269.4086 16.05467077  1759
STARLINK-36489          
1 67328U 26002Z   26008.58335648 -.00965203  32792-3 -12846-2 0  9990
2 67328  43.0010 315.9780 0001684 248.6165 283.3078 16.05740150  1911
STARLINK-36496          
1 67329U 26002AA  26008.58335648 -.00961563  32653-3 -12620-2 0  9992
2 67329  43.0010 315.9741 0001639 251.3410 282.0999 16.05963774  1730
STARLINK-36483          
1 67330U 26002AB  26008.58335648 -.00968176  33166-3 -12497-2 0  9993
2 67330  43.0010 315.9679 0001915 258.0359 277.7452 16.06231495  1919
STARLINK-36494          
1 67331U 26002AC  26008.58335648 -.00960608  32553-3 -12690-2 0  9990
2 67331  43.0010 315.9758 0001681 248.2167 284.4979 16.05858304  1918
STARLINK-36492          
1 67332U 26002AD  26008.58335648 -.00957283  32460-3 -12418-2 0  9991
2 67332  43.0009 315.9695 0001653 249.9321 285.1884 16.06150186  1913
STARLINK-36427          
1 67333U 26002AE  26008.58335648 -.00472698  93026-4 -55946-3 0  9994
2 67333  43.0008 315.9491 0002009 259.1446 284.0015 16.07504108  1815
