CCSDS_OMM_VERS = 2.0
CREATION_DATE  = 
ORIGINATOR     = 

OBJECT_NAME    = STARLINK-36471
OBJECT_ID      = 2026-002V
CENTER_NAME    = EARTH
REF_FRAME      = TEME
TIME_SYSTEM    = UTC
MEAN_ELEMENT_THEORY = SGP/SGP4

EPOCH          = 2026-01-08T14:00:01.999872
MEAN_MOTION    = 16.05348766
ECCENTRICITY   = .00019414
INCLINATION    = 43.0013
RA_OF_ASC_NODE = 315.9842
ARG_OF_PERICENTER = 264.9525
MEAN_ANOMALY   = 264.5196

EPHEMERIS_TYPE = 0
CLASSIFICATION_TYPE = U
NORAD_CAT_ID   = 67324
ELEMENT_SET_NO = 999
REV_AT_EPOCH   = 175
BSTAR          = -.13254275E-2
MEAN_MOTION_DOT = -.972078E-2
MEAN_MOTION_DDOT = .33067047E-3

CCSDS_OMM_VERS = 2.0
CREATION_DATE  = 
ORIGINATOR     = 

OBJECT_NAME    = STARLINK-36473
OBJECT_ID      = 2026-002W
CENTER_NAME    = EARTH
REF_FRAME      = TEME
TIME_SYSTEM    = UTC
MEAN_ELEMENT_THEORY = SGP/SGP4

EPOCH          = 2026-01-08T14:00:01.999872
MEAN_MOTION    = 16.05231142
ECCENTRICITY   = .00019144
INCLINATION    = 43.0011
RA_OF_ASC_NODE = 315.9863
ARG_OF_PERICENTER = 262.8839
MEAN_ANOMALY   = 265.7995

EPHEMERIS_TYPE = 0
CLASSIFICATION_TYPE = U
NORAD_CAT_ID   = 67325
ELEMENT_SET_NO = 999
REV_AT_EPOCH   = 191
BSTAR          = -.13440713E-2
MEAN_MOTION_DOT = -.978554E-2
MEAN_MOTION_DDOT = .33423516E-3

CCSDS_OMM_VERS = 2.0
CREATION_DATE  = 
ORIGINATOR     = 

OBJECT_NAME    = STARLINK-36430
OBJECT_ID      = 2026-002X
CENTER_NAME    = EARTH
REF_FRAME      = TEME
TIME_SYSTEM    = UTC
MEAN_ELEMENT_THEORY = SGP/SGP4

EPOCH          = 2026-01-08T14:00:01.999872
MEAN_MOTION    = 16.05602298
ECCENTRICITY   = .00017979
INCLINATION    = 43.0012
RA_OF_ASC_NODE = 315.9803
ARG_OF_PERICENTER = 257.3398
MEAN_ANOMALY   = 273.7240

EPHEMERIS_TYPE = 0
CLASSIFICATION_TYPE = U
NORAD_CAT_ID   = 67326
ELEMENT_SET_NO = 999
REV_AT_EPOCH   = 191
BSTAR          = -.13151642E-2
MEAN_MOTION_DOT = -.979671E-2
MEAN_MOTION_DDOT = .33637926E-3

CCSDS_OMM_VERS = 2.0
CREATION_DATE  = 
ORIGINATOR     = 

OBJECT_NAME    = STARLINK-36501
OBJECT_ID      = 2026-002Y
CENTER_NAME    = EARTH
REF_FRAME      = TEME
TIME_SYSTEM    = UTC
MEAN_ELEMENT_THEORY = SGP/SGP4

EPOCH          = 2026-01-08T14:00:01.999872
MEAN_MOTION    = 16.05467077
ECCENTRICITY   = .00018727
INCLINATION    = 43.0012
RA_OF_ASC_NODE = 315.9823
ARG_OF_PERICENTER = 260.8420
MEAN_ANOMALY   = 269.4086

EPHEMERIS_TYPE = 0
CLASSIFICATION_TYPE = U
NORAD_CAT_ID   = 67327
ELEMENT_SET_NO = 999
REV_AT_EPOCH   = 175
BSTAR          = -.13200529E-2
MEAN_MOTION_DOT = -.975186E-2
MEAN_MOTION_DDOT = .33305589E-3

CCSDS_OMM_VERS = 2.0
CREATION_DATE  = 
ORIGINATOR     = 

OBJECT_NAME    = STARLINK-36489
OBJECT_ID      = 2026-002Z
CENTER_NAME    = EARTH
REF_FRAME      = TEME
TIME_SYSTEM    = UTC
MEAN_ELEMENT_THEORY = SGP/SGP4

EPOCH          = 2026-01-08T14:00:01.999872
MEAN_MOTION    = 16.05740150
ECCENTRICITY   = .0001684
INCLINATION    = 43.0010
RA_OF_ASC_NODE = 315.9780
ARG_OF_PERICENTER = 248.6165
MEAN_ANOMALY   = 283.3078

EPHEMERIS_TYPE = 0
CLASSIFICATION_TYPE = U
NORAD_CAT_ID   = 67328
ELEMENT_SET_NO = 999
REV_AT_EPOCH   = 191
BSTAR          = -.12845514E-2
MEAN_MOTION_DOT = -.965203E-2
MEAN_MOTION_DDOT = .32792044E-3

CCSDS_OMM_VERS = 2.0
CREATION_DATE  = 
ORIGINATOR     = 

OBJECT_NAME    = STARLINK-36496
OBJECT_ID      = 2026-002AA
CENTER_NAME    = EARTH
REF_FRAME      = TEME
TIME_SYSTEM    = UTC
MEAN_ELEMENT_THEORY = SGP/SGP4

EPOCH          = 2026-01-08T14:00:01.999872
MEAN_MOTION    = 16.05963774
ECCENTRICITY   = .00016396
INCLINATION    = 43.0010
RA_OF_ASC_NODE = 315.9741
ARG_OF_PERICENTER = 251.3410
MEAN_ANOMALY   = 282.0999

EPHEMERIS_TYPE = 0
CLASSIFICATION_TYPE = U
NORAD_CAT_ID   = 67329
ELEMENT_SET_NO = 999
REV_AT_EPOCH   = 173
BSTAR          = -.12620093E-2
MEAN_MOTION_DOT = -.961563E-2
MEAN_MOTION_DDOT = .32652635E-3

CCSDS_OMM_VERS = 2.0
CREATION_DATE  = 
ORIGINATOR     = 

OBJECT_NAME    = STARLINK-36483
OBJECT_ID      = 2026-002AB
CENTER_NAME    = EARTH
REF_FRAME      = TEME
TIME_SYSTEM    = UTC
MEAN_ELEMENT_THEORY = SGP/SGP4

EPOCH          = 2026-01-08T14:00:01.999872
MEAN_MOTION    = 16.06231495
ECCENTRICITY   = .00019151
INCLINATION    = 43.0010
RA_OF_ASC_NODE = 315.9679
ARG_OF_PERICENTER = 258.0359
MEAN_ANOMALY   = 277.7452

EPHEMERIS_TYPE = 0
CLASSIFICATION_TYPE = U
NORAD_CAT_ID   = 67330
ELEMENT_SET_NO = 999
REV_AT_EPOCH   = 191
BSTAR          = -.12496546E-2
MEAN_MOTION_DOT = -.968176E-2
MEAN_MOTION_DDOT = .33166422E-3

CCSDS_OMM_VERS = 2.0
CREATION_DATE  = 
ORIGINATOR     = 

OBJECT_NAME    = STARLINK-36494
OBJECT_ID      = 2026-002AC
CENTER_NAME    = EARTH
REF_FRAME      = TEME
TIME_SYSTEM    = UTC
MEAN_ELEMENT_THEORY = SGP/SGP4

EPOCH          = 2026-01-08T14:00:01.999872
MEAN_MOTION    = 16.05858304
ECCENTRICITY   = .00016817
INCLINATION    = 43.0010
RA_OF_ASC_NODE = 315.9758
ARG_OF_PERICENTER = 248.2167
MEAN_ANOMALY   = 284.4979

EPHEMERIS_TYPE = 0
CLASSIFICATION_TYPE = U
NORAD_CAT_ID   = 67331
ELEMENT_SET_NO = 999
REV_AT_EPOCH   = 191
BSTAR          = -.12690274E-2
MEAN_MOTION_DOT = -.960608E-2
MEAN_MOTION_DDOT = .32553432E-3

CCSDS_OMM_VERS = 2.0
CREATION_DATE  = 
ORIGINATOR     = 

OBJECT_NAME    = STARLINK-36492
OBJECT_ID      = 2026-002AD
CENTER_NAME    = EARTH
REF_FRAME      = TEME
TIME_SYSTEM    = UTC
MEAN_ELEMENT_THEORY = SGP/SGP4

EPOCH          = 2026-01-08T14:00:01.999872
MEAN_MOTION    = 16.06150186
ECCENTRICITY   = .00016534
INCLINATION    = 43.0009
RA_OF_ASC_NODE = 315.9695
ARG_OF_PERICENTER = 249.9321
MEAN_ANOMALY   = 285.1884

EPHEMERIS_TYPE = 0
CLASSIFICATION_TYPE = U
NORAD_CAT_ID   = 67332
ELEMENT_SET_NO = 999
REV_AT_EPOCH   = 191
BSTAR          = -.12418177E-2
MEAN_MOTION_DOT = -.957283E-2
MEAN_MOTION_DDOT = .3245961E-3

CCSDS_OMM_VERS = 2.0
CREATION_DATE  = 
ORIGINATOR     = 

OBJECT_NAME    = STARLINK-36427
OBJECT_ID      = 2026-002AE
CENTER_NAME    = EARTH
REF_FRAME      = TEME
TIME_SYSTEM    = UTC
MEAN_ELEMENT_THEORY = SGP/SGP4

EPOCH          = 2026-01-08T14:00:01.999872
MEAN_MOTION    = 16.07504108
ECCENTRICITY   = .00020091
INCLINATION    = 43.0008
RA_OF_ASC_NODE = 315.9491
ARG_OF_PERICENTER = 259.1446
MEAN_ANOMALY   = 284.0015

EPHEMERIS_TYPE = 0
CLASSIFICATION_TYPE = U
NORAD_CAT_ID   = 67333
ELEMENT_SET_NO = 999
REV_AT_EPOCH   = 181
BSTAR          = -.55945919E-3
MEAN_MOTION_DOT = -.472698E-2
MEAN_MOTION_DDOT = .93026382E-4

